[{"OBJECT_NAME":"STARLINK-3973","OBJECT_ID":"2022-052AZ","EPOCH":"2026-03-09T17:22:25.203648","MEAN_MOTION":15.08837356,"ECCENTRICITY":0.00014154,"INCLINATION":53.2166,"RA_OF_ASC_NODE":259.074,"ARG_OF_PERICENTER":86.9851,"MEAN_ANOMALY":273.1303,"EPHEMERIS_TYPE":0,"CLASSIFICATION_TYPE":"U","NORAD_CAT_ID":52645,"ELEMENT_SET_NO":999,"REV_AT_EPOCH":21113,"BSTAR":1.2438642e-5,"MEAN_MOTION_DOT":-9.0e-7,"MEAN_MOTION_DDOT":0},{"OBJECT_NAME":"NANOFF B","OBJECT_ID":"2023-185S","EPOCH":"2026-03-09T23:34:31.291104","MEAN_MOTION":15.11549361,"ECCENTRICITY":0.00109129,"INCLINATION":97.5361,"RA_OF_ASC_NODE":137.8575,"ARG_OF_PERICENTER":288.4201,"MEAN_ANOMALY":71.5842,"EPHEMERIS_TYPE":0,"CLASSIFICATION_TYPE":"U","NORAD_CAT_ID":58755,"ELEMENT_SET_NO":999,"REV_AT_EPOCH":11888,"BSTAR":0.00028764283,"MEAN_MOTION_DOT":4.819e-5,"MEAN_MOTION_DDOT":0}]
